start=new Date('2022-11-12T00:00:00.000Z').valueOf();
sats=[{"PERIAPSIS":"538.782","MEAN_MOTION":"15.08832587","TIME_SYSTEM":"UTC","BSTAR":"0.00013503000000","FILE":"3651775","NORAD_CAT_ID":"53021","GP_ID":"217495080","COUNTRY_CODE":"US","INCLINATION":"53.2177","DECAY_DATE":null,"ELEMENT_SET_NO":"999","MEAN_ANOMALY":"314.3245","PERIOD":"95.438","CENTER_NAME":"EARTH","EPHEMERIS_TYPE":"0","RCS_SIZE":"LARGE","RA_OF_ASC_NODE":"133.3826","ECCENTRICITY":"0.00014250","OBJECT_NAME":"STARLINK-4203","MEAN_ELEMENT_THEORY":"SGP4","TLE_LINE1":"1 53021U 22076AM  22315.81890969  .00001861  00000-0  13503-3 0  9992","LAUNCH_DATE":"2022-07-07","MEAN_MOTION_DOT":"0.00001861","TLE_LINE2":"2 53021  53.2177 133.3826 0001425  45.7864 314.3245 15.08832587 19739","REV_AT_EPOCH":"1973","SEMIMAJOR_AXIS":"6917.903","MEAN_MOTION_DDOT":"0.0000000000000","EPOCH":"2022-11-11T19:39:13.797216","REF_FRAME":"TEME","CLASSIFICATION_TYPE":"U","OBJECT_ID":"2022-076AM","ARG_OF_PERICENTER":"45.7864","OBJECT_TYPE":"PAYLOAD","SITE":"AFETR","APOAPSIS":"540.754"},{"TLE_LINE2":"2 53022  53.2156 133.3482 0002017  37.8397 322.2737 15.08845300 19737","REV_AT_EPOCH":"1973","LAUNCH_DATE":"2022-07-07","MEAN_MOTION_DOT":"0.00008284","OBJECT_ID":"2022-076AN","ARG_OF_PERICENTER":"37.8397","OBJECT_TYPE":"PAYLOAD","SITE":"AFETR","APOAPSIS":"541.125","SEMIMAJOR_AXIS":"6917.864","MEAN_MOTION_DDOT":"0.0000000000000","EPOCH":"2022-11-11T19:55:08.434272","REF_FRAME":"TEME","CLASSIFICATION_TYPE":"U","NORAD_CAT_ID":"53022","GP_ID":"217494910","COUNTRY_CODE":"US","DECAY_DATE":null,"INCLINATION":"53.2156","TIME_SYSTEM":"UTC","PERIAPSIS":"538.334","MEAN_MOTION":"15.08845300","FILE":"3651775","BSTAR":"0.00053789000000","RCS_SIZE":"LARGE","RA_OF_ASC_NODE":"133.3482","ECCENTRICITY":"0.00020170","OBJECT_NAME":"STARLINK-4216","TLE_LINE1":"1 53022U 22076AN  22315.82995873  .00008284  00000-0  53789-3 0  9990","MEAN_ELEMENT_THEORY":"SGP4","ELEMENT_SET_NO":"999","MEAN_ANOMALY":"322.2737","PERIOD":"95.437","CENTER_NAME":"EARTH","EPHEMERIS_TYPE":"0"},{"SEMIMAJOR_AXIS":"6917.984","MEAN_MOTION_DDOT":"0.0000000000000","EPOCH":"2022-11-11T19:30:02.643840","REF_FRAME":"TEME","CLASSIFICATION_TYPE":"U","OBJECT_ID":"2022-076AP","ARG_OF_PERICENTER":"67.8538","OBJECT_TYPE":"PAYLOAD","SITE":"AFETR","APOAPSIS":"541.311","LAUNCH_DATE":"2022-07-07","MEAN_MOTION_DOT":"0.00025744","TLE_LINE2":"2 53023  53.2164 133.4122 0002113  67.8538 292.2678 15.08805996 19733","REV_AT_EPOCH":"1973","ELEMENT_SET_NO":"999","MEAN_ANOMALY":"292.2678","PERIOD":"95.440","EPHEMERIS_TYPE":"0","CENTER_NAME":"EARTH","RCS_SIZE":"LARGE","RA_OF_ASC_NODE":"133.4122","ECCENTRICITY":"0.00021130","OBJECT_NAME":"STARLINK-4284","MEAN_ELEMENT_THEORY":"SGP4","TLE_LINE1":"1 53023U 22076AP  22315.81253060  .00025744  00000-0  16312-2 0  9995","PERIAPSIS":"538.388","MEAN_MOTION":"15.08805996","TIME_SYSTEM":"UTC","BSTAR":"0.00163120000000","FILE":"3651775","NORAD_CAT_ID":"53023","GP_ID":"217494609","COUNTRY_CODE":"US","DECAY_DATE":null,"INCLINATION":"53.2164"},{"MEAN_ELEMENT_THEORY":"SGP4","TLE_LINE1":"1 53024U 22076AQ  22315.81524621  .00001391  00000-0  10553-3 0  9994","OBJECT_NAME":"STARLINK-4289","RA_OF_ASC_NODE":"133.3997","ECCENTRICITY":"0.00016000","RCS_SIZE":"LARGE","CENTER_NAME":"EARTH","EPHEMERIS_TYPE":"0","PERIOD":"95.439","MEAN_ANOMALY":"304.2360","ELEMENT_SET_NO":"999","INCLINATION":"53.2172","DECAY_DATE":null,"COUNTRY_CODE":"US","GP_ID":"217494357","NORAD_CAT_ID":"53024","BSTAR":"0.00010553000000","FILE":"3651775","MEAN_MOTION":"15.08823740","PERIAPSIS":"538.688","TIME_SYSTEM":"UTC","APOAPSIS":"540.902","SITE":"AFETR","OBJECT_TYPE":"PAYLOAD","ARG_OF_PERICENTER":"55.8784","OBJECT_ID":"2022-076AQ","CLASSIFICATION_TYPE":"U","REF_FRAME":"TEME","EPOCH":"2022-11-11T19:33:57.272544","MEAN_MOTION_DDOT":"0.0000000000000","SEMIMAJOR_AXIS":"6917.930","REV_AT_EPOCH":"1973","TLE_LINE2":"2 53024  53.2172 133.3997 0001600  55.8784 304.2360 15.08823740 19731","MEAN_MOTION_DOT":"0.00001391","LAUNCH_DATE":"2022-07-07"},{"REF_FRAME":"TEME","CLASSIFICATION_TYPE":"U","MEAN_MOTION_DDOT":"0.0000000000000","SEMIMAJOR_AXIS":"6917.906","EPOCH":"2022-11-11T19:23:19.866912","SITE":"AFETR","APOAPSIS":"541.048","OBJECT_TYPE":"PAYLOAD","ARG_OF_PERICENTER":"50.5734","OBJECT_ID":"2022-076AR","LAUNCH_DATE":"2022-07-07","MEAN_MOTION_DOT":"0.00000535","REV_AT_EPOCH":"1973","TLE_LINE2":"2 53025  53.2174 133.4348 0001846  50.5734 309.5421 15.08831648 19736","EPHEMERIS_TYPE":"0","CENTER_NAME":"EARTH","ELEMENT_SET_NO":"999","PERIOD":"95.438","MEAN_ANOMALY":"309.5421","OBJECT_NAME":"STARLINK-4218","TLE_LINE1":"1 53025U 22076AR  22315.80786883  .00000535  00000-0  51739-4 0  9995","MEAN_ELEMENT_THEORY":"SGP4","RCS_SIZE":"LARGE","RA_OF_ASC_NODE":"133.4348","ECCENTRICITY":"0.00018460","FILE":"3651775","BSTAR":"0.00005173900000","PERIAPSIS":"538.494","MEAN_MOTION":"15.08831648","TIME_SYSTEM":"UTC","COUNTRY_CODE":"US","INCLINATION":"53.2174","DECAY_DATE":null,"GP_ID":"217495336","NORAD_CAT_ID":"53025"},{"COUNTRY_CODE":"US","DECAY_DATE":null,"INCLINATION":"53.2179","GP_ID":"217494493","NORAD_CAT_ID":"53026","BSTAR":"0.00018836000000","FILE":"3651775","PERIAPSIS":"538.505","MEAN_MOTION":"15.08838316","TIME_SYSTEM":"UTC","OBJECT_NAME":"STARLINK-4119","TLE_LINE1":"1 53026U 22076AS  22315.82259907  .00002711  00000-0  18836-3 0  9998","MEAN_ELEMENT_THEORY":"SGP4","RCS_SIZE":"LARGE","ECCENTRICITY":"0.00018010","RA_OF_ASC_NODE":"133.3681","CENTER_NAME":"EARTH","EPHEMERIS_TYPE":"0","ELEMENT_SET_NO":"999","PERIOD":"95.438","MEAN_ANOMALY":"306.4248","REV_AT_EPOCH":"1973","TLE_LINE2":"2 53026  53.2179 133.3681 0001801  53.6910 306.4248 15.08838316 19734","LAUNCH_DATE":"2022-07-07","MEAN_MOTION_DOT":"0.00002711","SITE":"AFETR","APOAPSIS":"540.996","OBJECT_TYPE":"PAYLOAD","ARG_OF_PERICENTER":"53.6910","OBJECT_ID":"2022-076AS","REF_FRAME":"TEME","CLASSIFICATION_TYPE":"U","MEAN_MOTION_DDOT":"0.0000000000000","SEMIMAJOR_AXIS":"6917.886","EPOCH":"2022-11-11T19:44:32.559648"},{"NORAD_CAT_ID":"53027","GP_ID":"217494193","DECAY_DATE":null,"INCLINATION":"53.2203","COUNTRY_CODE":"US","TIME_SYSTEM":"UTC","PERIAPSIS":"538.846","MEAN_MOTION":"15.08823189","FILE":"3651775","BSTAR":"0.00018291000000","ECCENTRICITY":"0.00013740","RA_OF_ASC_NODE":"133.7747","RCS_SIZE":"LARGE","TLE_LINE1":"1 53027U 22076AT  22315.73060490  .00002623  00000-0  18291-3 0  9993","MEAN_ELEMENT_THEORY":"SGP4","OBJECT_NAME":"STARLINK-4158","MEAN_ANOMALY":"283.3817","PERIOD":"95.439","ELEMENT_SET_NO":"999","CENTER_NAME":"EARTH","EPHEMERIS_TYPE":"0","TLE_LINE2":"2 53027  53.2203 133.7747 0001374  76.7328 283.3817 15.08823189 19720","REV_AT_EPOCH":"1972","MEAN_MOTION_DOT":"0.00002623","LAUNCH_DATE":"2022-07-07","OBJECT_ID":"2022-076AT","ARG_OF_PERICENTER":"76.7328","OBJECT_TYPE":"PAYLOAD","APOAPSIS":"540.747","SITE":"AFETR","EPOCH":"2022-11-11T17:32:04.263360","SEMIMAJOR_AXIS":"6917.932","MEAN_MOTION_DDOT":"0.0000000000000","CLASSIFICATION_TYPE":"U","REF_FRAME":"TEME"},{"TLE_LINE2":"2 53028  53.2061 106.5958 0003719 283.6142 115.2190 15.99008503 20547","REV_AT_EPOCH":"2054","MEAN_MOTION_DOT":"0.01320562","LAUNCH_DATE":"2022-07-07","OBJECT_ID":"2022-076AU","ARG_OF_PERICENTER":"283.6142","OBJECT_TYPE":"PAYLOAD","APOAPSIS":"279.646","SITE":"AFETR","EPOCH":"2022-11-11T11:26:10.678272","SEMIMAJOR_AXIS":"6655.305","MEAN_MOTION_DDOT":"0.0009244900000","CLASSIFICATION_TYPE":"U","REF_FRAME":"TEME","NORAD_CAT_ID":"53028","GP_ID":"217406490","INCLINATION":"53.2061","DECAY_DATE":null,"COUNTRY_CODE":"US","TIME_SYSTEM":"UTC","PERIAPSIS":"274.695","MEAN_MOTION":"15.99008503","FILE":"3651187","BSTAR":"0.00269740000000","RA_OF_ASC_NODE":"106.5958","ECCENTRICITY":"0.00037190","RCS_SIZE":"LARGE","TLE_LINE1":"1 53028U 22076AU  22315.47651248  .01320562  92449-3  26974-2 0  9995","MEAN_ELEMENT_THEORY":"SGP4","OBJECT_NAME":"STARLINK-4161","MEAN_ANOMALY":"115.2190","PERIOD":"90.056","ELEMENT_SET_NO":"999","EPHEMERIS_TYPE":"0","CENTER_NAME":"EARTH"},{"APOAPSIS":"540.695","SITE":"AFETR","OBJECT_TYPE":"PAYLOAD","OBJECT_ID":"2022-076AV","ARG_OF_PERICENTER":"88.7858","CLASSIFICATION_TYPE":"U","REF_FRAME":"TEME","EPOCH":"2022-11-11T20:22:57.171648","MEAN_MOTION_DDOT":"0.0000000000000","SEMIMAJOR_AXIS":"6917.915","REV_AT_EPOCH":"1987","TLE_LINE2":"2 53029  53.2151 123.2609 0001322  88.7858 271.3286 15.08828660 19871","MEAN_MOTION_DOT":"0.00002206","LAUNCH_DATE":"2022-07-07","MEAN_ELEMENT_THEORY":"SGP4","TLE_LINE1":"1 53029U 22076AV  22315.84927282  .00002206  00000-0  15670-3 0  9993","OBJECT_NAME":"STARLINK-4143","RA_OF_ASC_NODE":"123.2609","ECCENTRICITY":"0.00013220","RCS_SIZE":"LARGE","CENTER_NAME":"EARTH","EPHEMERIS_TYPE":"0","PERIOD":"95.438","MEAN_ANOMALY":"271.3286","ELEMENT_SET_NO":"999","INCLINATION":"53.2151","DECAY_DATE":null,"COUNTRY_CODE":"US","GP_ID":"217495081","NORAD_CAT_ID":"53029","BSTAR":"0.00015670000000","FILE":"3651775","PERIAPSIS":"538.866","TIME_SYSTEM":"UTC","MEAN_MOTION":"15.08828660"},{"LAUNCH_DATE":"2022-07-07","MEAN_MOTION_DOT":"0.00001456","TLE_LINE2":"2 53030  53.2182 133.4490 0001311  73.5817 286.5319 15.08814367 19732","REV_AT_EPOCH":"1973","MEAN_MOTION_DDOT":"0.0000000000000","SEMIMAJOR_AXIS":"6917.959","EPOCH":"2022-11-11T19:18:03.775104","REF_FRAME":"TEME","CLASSIFICATION_TYPE":"U","OBJECT_TYPE":"PAYLOAD","ARG_OF_PERICENTER":"73.5817","OBJECT_ID":"2022-076AW","SITE":"AFETR","APOAPSIS":"540.731","PERIAPSIS":"538.917","MEAN_MOTION":"15.08814367","TIME_SYSTEM":"UTC","BSTAR":"0.00010962000000","FILE":"3651775","GP_ID":"217494911","NORAD_CAT_ID":"53030","COUNTRY_CODE":"US","INCLINATION":"53.2182","DECAY_DATE":null,"ELEMENT_SET_NO":"999","PERIOD":"95.439","MEAN_ANOMALY":"286.5319","CENTER_NAME":"EARTH","EPHEMERIS_TYPE":"0","RCS_SIZE":"MEDIUM","RA_OF_ASC_NODE":"133.4490","ECCENTRICITY":"0.00013110","OBJECT_NAME":"STARLINK-4160","MEAN_ELEMENT_THEORY":"SGP4","TLE_LINE1":"1 53030U 22076AW  22315.80421036  .00001456  00000-0  10962-3 0  9992"}];
